IRIDIUM 113             
1 42803U 17039A   24209.57855651  .00000029  00000+0  32972-5 0  9994
2 42803  86.3947 250.3003 0002378  96.0355 264.1111 14.34217308372345
IRIDIUM 123             
1 42804U 17039B   24211.50377905  .00000399  00000+0  13524-3 0  9992
2 42804  86.3953 281.0046 0002427  94.5210 265.6263 14.34216970371380
IRIDIUM 120             
1 42805U 17039C   24211.38619423  .00000386  00000+0  13087-3 0  9993
2 42805  86.3930 249.4164 0002282  90.9377 269.2080 14.34218180372594
IRIDIUM 118             
1 42807U 17039E   24209.65174525 -.00000033  00000+0 -18956-4 0  9993
2 42807  86.3955 281.7798 0002066  93.9443 266.1989 14.34214366371115
IRIDIUM 117             
1 42808U 17039F   24210.50799713  .00000161  00000+0  50377-4 0  9995
2 42808  86.3956 281.3864 0002473  94.8130 265.3349 14.34216543371268
